CCSDS_OMM_VERS = 2.0
CREATION_DATE  = 
ORIGINATOR     = 

OBJECT_NAME    = SL-14 R/B
OBJECT_ID      = 1991-042B
CENTER_NAME    = EARTH
REF_FRAME      = TEME
TIME_SYSTEM    = UTC
MEAN_ELEMENT_THEORY = SGP/SGP4

EPOCH          = 2026-01-05T03:31:56.663904
MEAN_MOTION    = 14.81765506
ECCENTRICITY   = .0018562
INCLINATION    = 82.4938
RA_OF_ASC_NODE = 279.7757
ARG_OF_PERICENTER = 89.7671
MEAN_ANOMALY   = 270.5670

EPHEMERIS_TYPE = 0
CLASSIFICATION_TYPE = U
NORAD_CAT_ID   = 21423
ELEMENT_SET_NO = 999
REV_AT_EPOCH   = 84366
BSTAR          = .78884E-4
MEAN_MOTION_DOT = .647E-5
MEAN_MOTION_DDOT = 0

CCSDS_OMM_VERS = 2.0
CREATION_DATE  = 
ORIGINATOR     = 

OBJECT_NAME    = ERS-1
OBJECT_ID      = 1991-050A
CENTER_NAME    = EARTH
REF_FRAME      = TEME
TIME_SYSTEM    = UTC
MEAN_ELEMENT_THEORY = SGP/SGP4

EPOCH          = 2026-01-05T00:34:51.696480
MEAN_MOTION    = 14.39387733
ECCENTRICITY   = .0032515
INCLINATION    = 98.7895
RA_OF_ASC_NODE = 21.6608
ARG_OF_PERICENTER = 32.7738
MEAN_ANOMALY   = 327.5457

EPHEMERIS_TYPE = 0
CLASSIFICATION_TYPE = U
NORAD_CAT_ID   = 21574
ELEMENT_SET_NO = 999
REV_AT_EPOCH   = 80657
BSTAR          = .18585E-3
MEAN_MOTION_DOT = .535E-5
MEAN_MOTION_DDOT = 0

CCSDS_OMM_VERS = 2.0
CREATION_DATE  = 
ORIGINATOR     = 

OBJECT_NAME    = ARIANE 40 R/B
OBJECT_ID      = 1991-050F
CENTER_NAME    = EARTH
REF_FRAME      = TEME
TIME_SYSTEM    = UTC
MEAN_ELEMENT_THEORY = SGP/SGP4

EPOCH          = 2026-01-05T03:46:13.407168
MEAN_MOTION    = 14.42836769
ECCENTRICITY   = .0002005
INCLINATION    = 98.2129
RA_OF_ASC_NODE = 59.7388
ARG_OF_PERICENTER = 262.7720
MEAN_ANOMALY   = 97.3242

EPHEMERIS_TYPE = 0
CLASSIFICATION_TYPE = U
NORAD_CAT_ID   = 21610
ELEMENT_SET_NO = 999
REV_AT_EPOCH   = 80983
BSTAR          = .16799E-3
MEAN_MOTION_DOT = .519E-5
MEAN_MOTION_DDOT = 0

CCSDS_OMM_VERS = 2.0
CREATION_DATE  = 
ORIGINATOR     = 

OBJECT_NAME    = INTERCOSMOS 25
OBJECT_ID      = 1991-086A
CENTER_NAME    = EARTH
REF_FRAME      = TEME
TIME_SYSTEM    = UTC
MEAN_ELEMENT_THEORY = SGP/SGP4

EPOCH          = 2026-01-05T01:59:16.064448
MEAN_MOTION    = 12.11825974
ECCENTRICITY   = .1485948
INCLINATION    = 82.6080
RA_OF_ASC_NODE = 348.4544
ARG_OF_PERICENTER = 254.0479
MEAN_ANOMALY   = 89.2375

EPHEMERIS_TYPE = 0
CLASSIFICATION_TYPE = U
NORAD_CAT_ID   = 21819
ELEMENT_SET_NO = 999
REV_AT_EPOCH   = 48898
BSTAR          = .35119E-3
MEAN_MOTION_DOT = .1763E-4
MEAN_MOTION_DDOT = 0

CCSDS_OMM_VERS = 2.0
CREATION_DATE  = 
ORIGINATOR     = 

OBJECT_NAME    = SL-8 R/B
OBJECT_ID      = 1992-008B
CENTER_NAME    = EARTH
REF_FRAME      = TEME
TIME_SYSTEM    = UTC
MEAN_ELEMENT_THEORY = SGP/SGP4

EPOCH          = 2026-01-05T03:46:01.224768
MEAN_MOTION    = 13.75964537
ECCENTRICITY   = .0033829
INCLINATION    = 82.9283
RA_OF_ASC_NODE = 315.0294
ARG_OF_PERICENTER = 313.9205
MEAN_ANOMALY   = 57.1292

EPHEMERIS_TYPE = 0
CLASSIFICATION_TYPE = U
NORAD_CAT_ID   = 21876
ELEMENT_SET_NO = 999
REV_AT_EPOCH   = 70068
BSTAR          = .11202E-3
MEAN_MOTION_DOT = .124E-5
MEAN_MOTION_DDOT = 0

CCSDS_OMM_VERS = 2.0
CREATION_DATE  = 
ORIGINATOR     = 

OBJECT_NAME    = SL-8 R/B
OBJECT_ID      = 1992-020B
CENTER_NAME    = EARTH
REF_FRAME      = TEME
TIME_SYSTEM    = UTC
MEAN_ELEMENT_THEORY = SGP/SGP4

EPOCH          = 2026-01-05T01:20:21.996096
MEAN_MOTION    = 13.75534490
ECCENTRICITY   = .00301
INCLINATION    = 82.9291
RA_OF_ASC_NODE = 201.0028
ARG_OF_PERICENTER = 114.4946
MEAN_ANOMALY   = 359.5192

EPHEMERIS_TYPE = 0
CLASSIFICATION_TYPE = U
NORAD_CAT_ID   = 21938
ELEMENT_SET_NO = 999
REV_AT_EPOCH   = 69238
BSTAR          = .16539E-3
MEAN_MOTION_DOT = .175E-5
MEAN_MOTION_DDOT = 0

CCSDS_OMM_VERS = 2.0
CREATION_DATE  = 
ORIGINATOR     = 

OBJECT_NAME    = USA 81
OBJECT_ID      = 1992-023A
CENTER_NAME    = EARTH
REF_FRAME      = TEME
TIME_SYSTEM    = UTC
MEAN_ELEMENT_THEORY = SGP/SGP4

EPOCH          = 2026-01-05T03:46:49.971648
MEAN_MOTION    = 14.32338132
ECCENTRICITY   = .000123
INCLINATION    = 85.0091
RA_OF_ASC_NODE = 168.0706
ARG_OF_PERICENTER = 112.1080
MEAN_ANOMALY   = 248.0244

EPHEMERIS_TYPE = 0
CLASSIFICATION_TYPE = U
NORAD_CAT_ID   = 21949
ELEMENT_SET_NO = 999
REV_AT_EPOCH   = 8569
BSTAR          = .96257E-4
MEAN_MOTION_DOT = .28E-5
MEAN_MOTION_DDOT = 0

CCSDS_OMM_VERS = 2.0
CREATION_DATE  = 
ORIGINATOR     = 

OBJECT_NAME    = COSMOS 2219
OBJECT_ID      = 1992-076A
CENTER_NAME    = EARTH
REF_FRAME      = TEME
TIME_SYSTEM    = UTC
MEAN_ELEMENT_THEORY = SGP/SGP4

EPOCH          = 2026-01-05T03:20:32.656704
MEAN_MOTION    = 14.14077884
ECCENTRICITY   = .0020154
INCLINATION    = 71.0608
RA_OF_ASC_NODE = 150.9182
ARG_OF_PERICENTER = 294.5903
MEAN_ANOMALY   = 65.3120

EPHEMERIS_TYPE = 0
CLASSIFICATION_TYPE = U
NORAD_CAT_ID   = 22219
ELEMENT_SET_NO = 999
REV_AT_EPOCH   = 70939
BSTAR          = .17486E-3
MEAN_MOTION_DOT = .286E-5
MEAN_MOTION_DDOT = 0

CCSDS_OMM_VERS = 2.0
CREATION_DATE  = 
ORIGINATOR     = 

OBJECT_NAME    = SL-16 R/B
OBJECT_ID      = 1992-076B
CENTER_NAME    = EARTH
REF_FRAME      = TEME
TIME_SYSTEM    = UTC
MEAN_ELEMENT_THEORY = SGP/SGP4

EPOCH          = 2026-01-05T03:54:11.043648
MEAN_MOTION    = 14.16845377
ECCENTRICITY   = .0013634
INCLINATION    = 71.0011
RA_OF_ASC_NODE = 322.1912
ARG_OF_PERICENTER = 202.0683
MEAN_ANOMALY   = 250.0736

EPHEMERIS_TYPE = 0
CLASSIFICATION_TYPE = U
NORAD_CAT_ID   = 22220
ELEMENT_SET_NO = 999
REV_AT_EPOCH   = 71283
BSTAR          = .13122E-4
MEAN_MOTION_DOT = -.22E-6
MEAN_MOTION_DDOT = 0

CCSDS_OMM_VERS = 2.0
CREATION_DATE  = 
ORIGINATOR     = 

OBJECT_NAME    = COSMOS 2221
OBJECT_ID      = 1992-080A
CENTER_NAME    = EARTH
REF_FRAME      = TEME
TIME_SYSTEM    = UTC
MEAN_ELEMENT_THEORY = SGP/SGP4

EPOCH          = 2026-01-05T00:43:49.984896
MEAN_MOTION    = 14.95882605
ECCENTRICITY   = .0015921
INCLINATION    = 82.5052
RA_OF_ASC_NODE = 340.0298
ARG_OF_PERICENTER = 51.1755
MEAN_ANOMALY   = 309.0885

EPHEMERIS_TYPE = 0
CLASSIFICATION_TYPE = U
NORAD_CAT_ID   = 22236
ELEMENT_SET_NO = 999
REV_AT_EPOCH   = 77127
BSTAR          = .22807E-3
MEAN_MOTION_DOT = .2581E-4
MEAN_MOTION_DDOT = 0

CCSDS_OMM_VERS = 2.0
CREATION_DATE  = 
ORIGINATOR     = 

OBJECT_NAME    = SL-16 R/B
OBJECT_ID      = 1992-093B
CENTER_NAME    = EARTH
REF_FRAME      = TEME
TIME_SYSTEM    = UTC
MEAN_ELEMENT_THEORY = SGP/SGP4

EPOCH          = 2026-01-04T18:47:12.681024
MEAN_MOTION    = 14.15434056
ECCENTRICITY   = .00031285
INCLINATION    = 71.0211
RA_OF_ASC_NODE = 138.4241
ARG_OF_PERICENTER = 9.8387
MEAN_ANOMALY   = 350.2796

EPHEMERIS_TYPE = 0
CLASSIFICATION_TYPE = U
NORAD_CAT_ID   = 22285
ELEMENT_SET_NO = 999
REV_AT_EPOCH   = 70411
BSTAR          = -.30040606E-4
MEAN_MOTION_DOT = -.106E-5
MEAN_MOTION_DDOT = 0

CCSDS_OMM_VERS = 2.0
CREATION_DATE  = 
ORIGINATOR     = 

OBJECT_NAME    = COSMOS 2228
OBJECT_ID      = 1992-094A
CENTER_NAME    = EARTH
REF_FRAME      = TEME
TIME_SYSTEM    = UTC
MEAN_ELEMENT_THEORY = SGP/SGP4

EPOCH          = 2026-01-05T03:43:30.395424
MEAN_MOTION    = 14.96865687
ECCENTRICITY   = .0018664
INCLINATION    = 82.5197
RA_OF_ASC_NODE = 298.1301
ARG_OF_PERICENTER = 150.6926
MEAN_ANOMALY   = 209.5347

EPHEMERIS_TYPE = 0
CLASSIFICATION_TYPE = U
NORAD_CAT_ID   = 22286
ELEMENT_SET_NO = 999
REV_AT_EPOCH   = 76655
BSTAR          = .29331E-3
MEAN_MOTION_DOT = .34E-4
MEAN_MOTION_DDOT = 0

