SL-14 R/B               
1 21423U 91042B   26005.14718361  .00000647  00000+0  78884-4 0  9997
2 21423  82.4938 279.7757 0018562  89.7671 270.5670 14.81765506843669
ERS-1                   
1 21574U 91050A   26005.02420945  .00000535  00000+0  18585-3 0  9995
2 21574  98.7895  21.6608 0032515  32.7738 327.5457 14.39387733806573
ARIANE 40 R/B           
1 21610U 91050F   26005.15709962  .00000519  00000+0  16799-3 0  9996
2 21610  98.2129  59.7388 0002005 262.7720  97.3242 14.42836769809831
INTERCOSMOS 25          
1 21819U 91086A   26005.08282482  .00001763  00000+0  35119-3 0  9990
2 21819  82.6080 348.4544 1485948 254.0479  89.2375 12.11825974488980
SL-8 R/B                
1 21876U 92008B   26005.15695862  .00000124  00000+0  11202-3 0  9993
2 21876  82.9283 315.0294 0033829 313.9205  57.1292 13.75964537700687
SL-8 R/B                
1 21938U 92020B   26005.05581014  .00000175  00000+0  16539-3 0  9992
2 21938  82.9291 201.0028 0030100 114.4946 359.5192 13.75534490692385
USA 81                  
1 21949U 92023A   26005.15752282  .00000280  00000+0  96257-4 0  9998
2 21949  85.0091 168.0706 0001230 112.1080 248.0244 14.32338132 85699
COSMOS 2219             
1 22219U 92076A   26005.13926686  .00000286  00000+0  17486-3 0  9998
2 22219  71.0608 150.9182 0020154 294.5903  65.3120 14.14077884709399
SL-16 R/B               
1 22220U 92076B   26005.16262782 -.00000022  00000+0  13122-4 0  9996
2 22220  71.0011 322.1912 0013634 202.0683 250.0736 14.16845377712838
COSMOS 2221             
1 22236U 92080A   26005.03043964  .00002581  00000+0  22807-3 0  9993
2 22236  82.5052 340.0298 0015921  51.1755 309.0885 14.95882605771272
SL-16 R/B               
1 22285U 92093B   26004.78278566 -.00000106  00000+0 -30041-4 0  9993
2 22285  71.0211 138.4241 0003128   9.8387 350.2796 14.15434056704113
COSMOS 2228             
1 22286U 92094A   26005.15521291  .00003400  00000+0  29331-3 0  9990
2 22286  82.5197 298.1301 0018664 150.6926 209.5347 14.96865687766551
